CCSDS_OMM_VERS = 2.0
CREATION_DATE  = 
ORIGINATOR     = 

OBJECT_NAME    = DELTA 2 R/B(1)
OBJECT_ID      = 1990-008B
CENTER_NAME    = EARTH
REF_FRAME      = TEME
TIME_SYSTEM    = UTC
MEAN_ELEMENT_THEORY = SGP/SGP4

EPOCH          = 2025-12-22T04:21:09.163584
MEAN_MOTION    = 15.45945386
ECCENTRICITY   = .01108373
INCLINATION    = 35.6079
RA_OF_ASC_NODE = 319.5298
ARG_OF_PERICENTER = 264.1613
MEAN_ANOMALY   = 94.6476

EPHEMERIS_TYPE = 0
CLASSIFICATION_TYPE = U
NORAD_CAT_ID   = 20453
ELEMENT_SET_NO = 999
REV_AT_EPOCH   = 91409
BSTAR          = .71321556E-3
MEAN_MOTION_DOT = .45731E-3
MEAN_MOTION_DDOT = 0

CCSDS_OMM_VERS = 2.0
CREATION_DATE  = 
ORIGINATOR     = 

OBJECT_NAME    = COSMOS 2058
OBJECT_ID      = 1990-010A
CENTER_NAME    = EARTH
REF_FRAME      = TEME
TIME_SYSTEM    = UTC
MEAN_ELEMENT_THEORY = SGP/SGP4

EPOCH          = 2025-12-22T19:50:58.898112
MEAN_MOTION    = 15.10565120
ECCENTRICITY   = .0009238
INCLINATION    = 82.4705
RA_OF_ASC_NODE = 123.1090
ARG_OF_PERICENTER = 233.5340
MEAN_ANOMALY   = 126.5039

EPHEMERIS_TYPE = 0
CLASSIFICATION_TYPE = U
NORAD_CAT_ID   = 20465
ELEMENT_SET_NO = 999
REV_AT_EPOCH   = 93063
BSTAR          = .30869E-3
MEAN_MOTION_DOT = .5125E-4
MEAN_MOTION_DDOT = 0

CCSDS_OMM_VERS = 2.0
CREATION_DATE  = 
ORIGINATOR     = 

OBJECT_NAME    = SL-14 R/B
OBJECT_ID      = 1990-010B
CENTER_NAME    = EARTH
REF_FRAME      = TEME
TIME_SYSTEM    = UTC
MEAN_ELEMENT_THEORY = SGP/SGP4

EPOCH          = 2025-12-22T11:00:05.119776
MEAN_MOTION    = 14.83479994
ECCENTRICITY   = .00194569
INCLINATION    = 82.5021
RA_OF_ASC_NODE = 339.9189
ARG_OF_PERICENTER = 189.8375
MEAN_ANOMALY   = 170.2462

EPHEMERIS_TYPE = 0
CLASSIFICATION_TYPE = U
NORAD_CAT_ID   = 20466
ELEMENT_SET_NO = 999
REV_AT_EPOCH   = 91703
BSTAR          = .51451575E-4
MEAN_MOTION_DOT = .448E-5
MEAN_MOTION_DDOT = 0

CCSDS_OMM_VERS = 2.0
CREATION_DATE  = 
ORIGINATOR     = 

OBJECT_NAME    = SL-14 R/B
OBJECT_ID      = 1990-018B
CENTER_NAME    = EARTH
REF_FRAME      = TEME
TIME_SYSTEM    = UTC
MEAN_ELEMENT_THEORY = SGP/SGP4

EPOCH          = 2025-12-22T19:22:05.448864
MEAN_MOTION    = 14.82056464
ECCENTRICITY   = .0016134
INCLINATION    = 82.5219
RA_OF_ASC_NODE = 294.9554
ARG_OF_PERICENTER = 350.8087
MEAN_ANOMALY   = 9.2829

EPHEMERIS_TYPE = 0
CLASSIFICATION_TYPE = U
NORAD_CAT_ID   = 20511
ELEMENT_SET_NO = 999
REV_AT_EPOCH   = 91119
BSTAR          = .54743E-4
MEAN_MOTION_DOT = .459E-5
MEAN_MOTION_DDOT = 0

CCSDS_OMM_VERS = 2.0
CREATION_DATE  = 
ORIGINATOR     = 

OBJECT_NAME    = HST
OBJECT_ID      = 1990-037B
CENTER_NAME    = EARTH
REF_FRAME      = TEME
TIME_SYSTEM    = UTC
MEAN_ELEMENT_THEORY = SGP/SGP4

EPOCH          = 2025-12-22T06:17:02.048928
MEAN_MOTION    = 15.28167201
ECCENTRICITY   = .00022281
INCLINATION    = 28.4658
RA_OF_ASC_NODE = 207.6710
ARG_OF_PERICENTER = 354.1662
MEAN_ANOMALY   = 5.8907

EPHEMERIS_TYPE = 0
CLASSIFICATION_TYPE = U
NORAD_CAT_ID   = 20580
ELEMENT_SET_NO = 999
REV_AT_EPOCH   = 76145
BSTAR          = .22399445E-3
MEAN_MOTION_DOT = .6554E-4
MEAN_MOTION_DDOT = 0

CCSDS_OMM_VERS = 2.0
CREATION_DATE  = 
ORIGINATOR     = 

OBJECT_NAME    = SL-16 R/B
OBJECT_ID      = 1990-046B
CENTER_NAME    = EARTH
REF_FRAME      = TEME
TIME_SYSTEM    = UTC
MEAN_ELEMENT_THEORY = SGP/SGP4

EPOCH          = 2025-12-21T17:22:20.437824
MEAN_MOTION    = 14.14998422
ECCENTRICITY   = .00120719
INCLINATION    = 70.9993
RA_OF_ASC_NODE = 101.6548
ARG_OF_PERICENTER = 57.4695
MEAN_ANOMALY   = 302.7592

EPHEMERIS_TYPE = 0
CLASSIFICATION_TYPE = U
NORAD_CAT_ID   = 20625
ELEMENT_SET_NO = 999
REV_AT_EPOCH   = 83736
BSTAR          = -.10281852E-3
MEAN_MOTION_DOT = -.247E-5
MEAN_MOTION_DDOT = 0

CCSDS_OMM_VERS = 2.0
CREATION_DATE  = 
ORIGINATOR     = 

OBJECT_NAME    = COSMOS 2084
OBJECT_ID      = 1990-055A
CENTER_NAME    = EARTH
REF_FRAME      = TEME
TIME_SYSTEM    = UTC
MEAN_ELEMENT_THEORY = SGP/SGP4

EPOCH          = 2025-12-22T09:37:53.928768
MEAN_MOTION    = 15.05072871
ECCENTRICITY   = .00301671
INCLINATION    = 62.7893
RA_OF_ASC_NODE = 239.0719
ARG_OF_PERICENTER = 176.0092
MEAN_ANOMALY   = 184.1255

EPHEMERIS_TYPE = 0
CLASSIFICATION_TYPE = U
NORAD_CAT_ID   = 20663
ELEMENT_SET_NO = 999
REV_AT_EPOCH   = 92468
BSTAR          = .20014257E-3
MEAN_MOTION_DOT = .2682E-4
MEAN_MOTION_DDOT = 0

CCSDS_OMM_VERS = 2.0
CREATION_DATE  = 
ORIGINATOR     = 

OBJECT_NAME    = SL-6 R/B(2)
OBJECT_ID      = 1990-055D
CENTER_NAME    = EARTH
REF_FRAME      = TEME
TIME_SYSTEM    = UTC
MEAN_ELEMENT_THEORY = SGP/SGP4

EPOCH          = 2025-12-22T19:30:38.860128
MEAN_MOTION    = 15.03117285
ECCENTRICITY   = .0013833
INCLINATION    = 62.7811
RA_OF_ASC_NODE = 155.1870
ARG_OF_PERICENTER = 315.6810
MEAN_ANOMALY   = 44.3181

EPHEMERIS_TYPE = 0
CLASSIFICATION_TYPE = U
NORAD_CAT_ID   = 20666
ELEMENT_SET_NO = 999
REV_AT_EPOCH   = 92663
BSTAR          = .15311E-3
MEAN_MOTION_DOT = .1882E-4
MEAN_MOTION_DDOT = 0

CCSDS_OMM_VERS = 2.0
CREATION_DATE  = 
ORIGINATOR     = 

OBJECT_NAME    = SL-8 R/B
OBJECT_ID      = 1990-078B
CENTER_NAME    = EARTH
REF_FRAME      = TEME
TIME_SYSTEM    = UTC
MEAN_ELEMENT_THEORY = SGP/SGP4

EPOCH          = 2025-12-22T19:56:02.823072
MEAN_MOTION    = 14.86295013
ECCENTRICITY   = .0370462
INCLINATION    = 82.9060
RA_OF_ASC_NODE = 320.2743
ARG_OF_PERICENTER = 271.9327
MEAN_ANOMALY   = 83.9510

EPHEMERIS_TYPE = 0
CLASSIFICATION_TYPE = U
NORAD_CAT_ID   = 20775
ELEMENT_SET_NO = 999
REV_AT_EPOCH   = 79787
BSTAR          = .50433E-3
MEAN_MOTION_DOT = .16325E-3
MEAN_MOTION_DDOT = 0

CCSDS_OMM_VERS = 2.0
CREATION_DATE  = 
ORIGINATOR     = 

OBJECT_NAME    = SL-8 R/B
OBJECT_ID      = 1991-006B
CENTER_NAME    = EARTH
REF_FRAME      = TEME
TIME_SYSTEM    = UTC
MEAN_ELEMENT_THEORY = SGP/SGP4

EPOCH          = 2025-12-22T10:26:25.512864
MEAN_MOTION    = 13.77491911
ECCENTRICITY   = .00212045
INCLINATION    = 82.9417
RA_OF_ASC_NODE = 227.5013
ARG_OF_PERICENTER = 250.9812
MEAN_ANOMALY   = 286.6719

EPHEMERIS_TYPE = 0
CLASSIFICATION_TYPE = U
NORAD_CAT_ID   = 21088
ELEMENT_SET_NO = 999
REV_AT_EPOCH   = 75343
BSTAR          = .11088672E-3
MEAN_MOTION_DOT = .126E-5
MEAN_MOTION_DDOT = 0

CCSDS_OMM_VERS = 2.0
CREATION_DATE  = 
ORIGINATOR     = 

OBJECT_NAME    = OKEAN-3
OBJECT_ID      = 1991-039A
CENTER_NAME    = EARTH
REF_FRAME      = TEME
TIME_SYSTEM    = UTC
MEAN_ELEMENT_THEORY = SGP/SGP4

EPOCH          = 2025-12-22T04:41:04.428960
MEAN_MOTION    = 15.04177527
ECCENTRICITY   = .00135539
INCLINATION    = 82.5170
RA_OF_ASC_NODE = 51.8958
ARG_OF_PERICENTER = 229.8358
MEAN_ANOMALY   = 130.1682

EPHEMERIS_TYPE = 0
CLASSIFICATION_TYPE = U
NORAD_CAT_ID   = 21397
ELEMENT_SET_NO = 999
REV_AT_EPOCH   = 85338
BSTAR          = .19313153E-3
MEAN_MOTION_DOT = .2712E-4
MEAN_MOTION_DDOT = 0

CCSDS_OMM_VERS = 2.0
CREATION_DATE  = 
ORIGINATOR     = 

OBJECT_NAME    = COSMOS 2151
OBJECT_ID      = 1991-042A
CENTER_NAME    = EARTH
REF_FRAME      = TEME
TIME_SYSTEM    = UTC
MEAN_ELEMENT_THEORY = SGP/SGP4

EPOCH          = 2025-12-22T19:57:30.125088
MEAN_MOTION    = 14.99722284
ECCENTRICITY   = .0011763
INCLINATION    = 82.4964
RA_OF_ASC_NODE = 157.7775
ARG_OF_PERICENTER = 324.3774
MEAN_ANOMALY   = 35.6663

EPHEMERIS_TYPE = 0
CLASSIFICATION_TYPE = U
NORAD_CAT_ID   = 21422
ELEMENT_SET_NO = 999
REV_AT_EPOCH   = 85167
BSTAR          = .12344E-3
MEAN_MOTION_DOT = .1552E-4
MEAN_MOTION_DDOT = 0

